[{"OBJECT_NAME":"CONTINUUM-1","OBJECT_ID":"2023-001AN","EPOCH":"2026-03-09T23:17:35.458656","MEAN_MOTION":15.27981258,"ECCENTRICITY":0.00109493,"INCLINATION":97.3456,"RA_OF_ASC_NODE":133.3964,"ARG_OF_PERICENTER":60.1976,"MEAN_ANOMALY":300.0351,"EPHEMERIS_TYPE":0,"CLASSIFICATION_TYPE":"U","NORAD_CAT_ID":55045,"ELEMENT_SET_NO":999,"REV_AT_EPOCH":17709,"BSTAR":0.00052859897,"MEAN_MOTION_DOT":0.00014395,"MEAN_MOTION_DDOT":0},{"OBJECT_NAME":"STARLINK-31819","OBJECT_ID":"2024-090J","EPOCH":"2026-03-09T09:16:54.121728","MEAN_MOTION":15.27576376,"ECCENTRICITY":9.515e-5,"INCLINATION":43.0023,"RA_OF_ASC_NODE":185.2187,"ARG_OF_PERICENTER":255.2717,"MEAN_ANOMALY":104.8029,"EPHEMERIS_TYPE":0,"CLASSIFICATION_TYPE":"U","NORAD_CAT_ID":59738,"ELEMENT_SET_NO":999,"REV_AT_EPOCH":10339,"BSTAR":-5.5292886e-5,"MEAN_MOTION_DOT":-1.783e-5,"MEAN_MOTION_DDOT":0}]
